{"type": "FeatureCollection", "features": [ {"type": "Feature", "properties": {"norad_id": 37834, "name": "INTELSAT 18 (IS-18)", "group": "intelsat", "lat": -0.027546205267495346, "lon": -159.81671706356857, "alt_km": 35784.65767979771, "timestamp": "2025-12-17T19:34:07.712421+00:00", "meta": {"OBJECT_NAME": "INTELSAT 18 (IS-18)", "OBJECT_ID": "2011-056A", "EPOCH": "2025-12-17T03:54:31.701024", "MEAN_MOTION": 1.00271964, "ECCENTRICITY": 0.00017331, "INCLINATION": 0.0128, "RA_OF_ASC_NODE": 305.3818, "ARG_OF_PERICENTER": 334.5403, "MEAN_ANOMALY": 44.7489, "EPHEMERIS_TYPE": 0, "CLASSIFICATION_TYPE": "U", "NORAD_CAT_ID": 37834, "ELEMENT_SET_NO": 999, "REV_AT_EPOCH": 5198, "BSTAR": 0, "MEAN_MOTION_DOT": 7.7e-07, "MEAN_MOTION_DDOT": 0}, "tle": {"line1": "1 37834U 11056A   25351.16286691  .00000077  00000+0  00000+0 0  9995", "line2": "2 37834   0.0128 305.3818 0001733 334.5403  44.7489  1.00271964 51981"}}, "geometry": {"type": "Point", "coordinates": [-159.81671706356857, -0.027546205267495346]}}, {"type": "Feature", "properties": {"norad_id": 38098, "name": "INTELSAT 22 (IS-22)", "group": "intelsat", "lat": 0.04511826091309472, "lon": 92.3086788433314, "alt_km": 35794.05085281629, "timestamp": "2025-12-17T19:34:07.712433+00:00", "meta": {"OBJECT_NAME": "INTELSAT 22 (IS-22)", "OBJECT_ID": "2012-011A", "EPOCH": "2025-12-17T03:23:49.641792", "MEAN_MOTION": 1.00270594, "ECCENTRICITY": 0.00018755, "INCLINATION": 0.0421, "RA_OF_ASC_NODE": 54.6207, "ARG_OF_PERICENTER": 233.2007, "MEAN_ANOMALY": 281.2568, "EPHEMERIS_TYPE": 0, "CLASSIFICATION_TYPE": "U", "NORAD_CAT_ID": 38098, "ELEMENT_SET_NO": 999, "REV_AT_EPOCH": 536, "BSTAR": 0, "MEAN_MOTION_DOT": 0, "MEAN_MOTION_DDOT": 0}, "tle": {"line1": "1 38098U 12011A   25351.14154678  .00000000  00000+0  00000+0 0  9993", "line2": "2 38098   0.0421  54.6207 0001875 233.2007 281.2568  1.00270594  5363"}}, "geometry": {"type": "Point", "coordinates": [92.3086788433314, 0.04511826091309472]}}, {"type": "Feature", "properties": {"norad_id": 38356, "name": "INTELSAT 19 (IS-19)", "group": "intelsat", "lat": -0.014001007054349056, "lon": -173.81494965420214, "alt_km": 35785.86139867378, "timestamp": "2025-12-17T19:34:07.712445+00:00", "meta": {"OBJECT_NAME": "INTELSAT 19 (IS-19)", "OBJECT_ID": "2012-030A", "EPOCH": "2025-12-17T05:21:51.620832", "MEAN_MOTION": 1.00272069, "ECCENTRICITY": 0.00031924, "INCLINATION": 0.0079, "RA_OF_ASC_NODE": 340.9294, "ARG_OF_PERICENTER": 294.8311, "MEAN_ANOMALY": 56.8222, "EPHEMERIS_TYPE": 0, "CLASSIFICATION_TYPE": "U", "NORAD_CAT_ID": 38356, "ELEMENT_SET_NO": 999, "REV_AT_EPOCH": 4862, "BSTAR": 0, "MEAN_MOTION_DOT": -3.2e-07, "MEAN_MOTION_DDOT": 0}, "tle": {"line1": "1 38356U 12030A   25351.22351413 -.00000032  00000+0  00000+0 0  9992", "line2": "2 38356   0.0079 340.9294 0003192 294.8311  56.8222  1.00272069 48629"}}, "geometry": {"type": "Point", "coordinates": [-173.81494965420214, -0.014001007054349056]}}, {"type": "Feature", "properties": {"norad_id": 38740, "name": "INTELSAT 20 (IS-20)", "group": "intelsat", "lat": 0.00688301786374857, "lon": 88.67742599485227, "alt_km": 35786.99402304932, "timestamp": "2025-12-17T19:34:07.712457+00:00", "meta": {"OBJECT_NAME": "INTELSAT 20 (IS-20)", "OBJECT_ID": "2012-043A", "EPOCH": "2025-12-17T00:05:38.746752", "MEAN_MOTION": 1.00274173, "ECCENTRICITY": 0.00029469, "INCLINATION": 0.0123, "RA_OF_ASC_NODE": 89.4199, "ARG_OF_PERICENTER": 96.5748, "MEAN_ANOMALY": 329.8002, "EPHEMERIS_TYPE": 0, "CLASSIFICATION_TYPE": "U", "NORAD_CAT_ID": 38740, "ELEMENT_SET_NO": 999, "REV_AT_EPOCH": 4892, "BSTAR": 0, "MEAN_MOTION_DOT": -1e-08, "MEAN_MOTION_DDOT": 0}, "tle": {"line1": "1 38740U 12043A   25351.00392068 -.00000001  00000+0  00000+0 0  9996", "line2": "2 38740   0.0123  89.4199 0002946  96.5748 329.8002  1.00274173 48922"}}, "geometry": {"type": "Point", "coordinates": [88.67742599485227, 0.00688301786374857]}}, {"type": "Feature", "properties": {"norad_id": 38749, "name": "INTELSAT 21 (IS-21)", "group": "intelsat", "lat": -0.0368234812292902, "lon": -37.74727705172346, "alt_km": 35782.666761518005, "timestamp": "2025-12-17T19:34:07.712468+00:00", "meta": {"OBJECT_NAME": "INTELSAT 21 (IS-21)", "OBJECT_ID": "2012-045A", "EPOCH": "2025-12-16T09:39:21.104640", "MEAN_MOTION": 1.00275644, "ECCENTRICITY": 0.00014741, "INCLINATION": 0.0368, "RA_OF_ASC_NODE": 79.4307, "ARG_OF_PERICENTER": 176.2803, "MEAN_ANOMALY": 276.4325, "EPHEMERIS_TYPE": 0, "CLASSIFICATION_TYPE": "U", "NORAD_CAT_ID": 38749, "ELEMENT_SET_NO": 999, "REV_AT_EPOCH": 4869, "BSTAR": 0, "MEAN_MOTION_DOT": -2.61e-06, "MEAN_MOTION_DDOT": 0}, "tle": {"line1": "1 38749U 12045A   25350.40232760 -.00000261  00000+0  00000+0 0  9990", "line2": "2 38749   0.0368  79.4307 0001474 176.2803 276.4325  1.00275644 48698"}}, "geometry": {"type": "Point", "coordinates": [-37.74727705172346, -0.0368234812292902]}}, {"type": "Feature", "properties": {"norad_id": 38867, "name": "INTELSAT 23 (IS-23)", "group": "intelsat", "lat": -0.03502754792785359, "lon": -32.74131920548514, "alt_km": 35785.579198600906, "timestamp": "2025-12-17T19:34:07.712480+00:00", "meta": {"OBJECT_NAME": "INTELSAT 23 (IS-23)", "OBJECT_ID": "2012-057A", "EPOCH": "2025-12-16T09:40:50.962368", "MEAN_MOTION": 1.00276027, "ECCENTRICITY": 4.125e-05, "INCLINATION": 0.0417, "RA_OF_ASC_NODE": 95.2831, "ARG_OF_PERICENTER": 124.0894, "MEAN_ANOMALY": 318.1615, "EPHEMERIS_TYPE": 0, "CLASSIFICATION_TYPE": "U", "NORAD_CAT_ID": 38867, "ELEMENT_SET_NO": 999, "REV_AT_EPOCH": 4812, "BSTAR": 0, "MEAN_MOTION_DOT": -2.61e-06, "MEAN_MOTION_DDOT": 0}, "tle": {"line1": "1 38867U 12057A   25350.40336762 -.00000261  00000+0  00000+0 0  9991", "line2": "2 38867   0.0417  95.2831 0000412 124.0894 318.1615  1.00276027 48124"}}, "geometry": {"type": "Point", "coordinates": [-32.74131920548514, -0.03502754792785359]}}, {"type": "Feature", "properties": {"norad_id": 39360, "name": "FM-6", "group": "intelsat", "lat": -0.016216860901039302, "lon": -95.92161465044134, "alt_km": 35785.88595438696, "timestamp": "2025-12-17T19:34:07.712492+00:00", "meta": {"OBJECT_NAME": "FM-6", "OBJECT_ID": "2013-058A", "EPOCH": "2025-12-17T07:03:19.257696", "MEAN_MOTION": 1.00269599, "ECCENTRICITY": 0.00029092, "INCLINATION": 0.0104, "RA_OF_ASC_NODE": 61.1526, "ARG_OF_PERICENTER": 116.5463, "MEAN_ANOMALY": 258.1465, "EPHEMERIS_TYPE": 0, "CLASSIFICATION_TYPE": "U", "NORAD_CAT_ID": 39360, "ELEMENT_SET_NO": 999, "REV_AT_EPOCH": 4424, "BSTAR": 0, "MEAN_MOTION_DOT": 8e-08, "MEAN_MOTION_DDOT": 0}, "tle": {"line1": "1 39360U 13058A   25351.29397289  .00000008  00000+0  00000+0 0  9999", "line2": "2 39360   0.0104  61.1526 0002909 116.5463 258.1465  1.00269599 44241"}}, "geometry": {"type": "Point", "coordinates": [-95.92161465044134, -0.016216860901039302]}}, {"type": "Feature", "properties": {"norad_id": 40271, "name": "INTELSAT 30 (IS-30)", "group": "intelsat", "lat": -0.03544246675352516, "lon": -74.85286244944314, "alt_km": 35792.53292616351, "timestamp": "2025-12-17T19:34:07.712503+00:00", "meta": {"OBJECT_NAME": "INTELSAT 30 (IS-30)", "OBJECT_ID": "2014-062A", "EPOCH": "2025-12-17T04:43:38.845632", "MEAN_MOTION": 1.00271123, "ECCENTRICITY": 0.00015749, "INCLINATION": 0.0149, "RA_OF_ASC_NODE": 23.0369, "ARG_OF_PERICENTER": 61.3258, "MEAN_ANOMALY": 337.5745, "EPHEMERIS_TYPE": 0, "CLASSIFICATION_TYPE": "U", "NORAD_CAT_ID": 40271, "ELEMENT_SET_NO": 999, "REV_AT_EPOCH": 496, "BSTAR": 0, "MEAN_MOTION_DOT": -1.26e-06, "MEAN_MOTION_DDOT": 0}, "tle": {"line1": "1 40271U 14062A   25351.19697738 -.00000126  00000+0  00000+0 0  9991", "line2": "2 40271   0.0149  23.0369 0001574  61.3258 337.5745  1.00271123  4965"}}, "geometry": {"type": "Point", "coordinates": [-74.85286244944314, -0.03544246675352516]}}, {"type": "Feature", "properties": {"norad_id": 40333, "name": "DIRECTV 14", "group": "intelsat", "lat": -0.025948229888410244, "lon": -79.00998139793603, "alt_km": 35787.23097201093, "timestamp": "2025-12-17T19:34:07.712515+00:00", "meta": {"OBJECT_NAME": "DIRECTV 14", "OBJECT_ID": "2014-078B", "EPOCH": "2025-12-16T21:26:45.259296", "MEAN_MOTION": 1.00272088, "ECCENTRICITY": 4.062e-05, "INCLINATION": 0.0021, "RA_OF_ASC_NODE": 2.4661, "ARG_OF_PERICENTER": 143.6123, "MEAN_ANOMALY": 162.1671, "EPHEMERIS_TYPE": 0, "CLASSIFICATION_TYPE": "U", "NORAD_CAT_ID": 40333, "ELEMENT_SET_NO": 999, "REV_AT_EPOCH": 4021, "BSTAR": 0, "MEAN_MOTION_DOT": -1.01e-06, "MEAN_MOTION_DDOT": 0}, "tle": {"line1": "1 40333U 14078B   25350.89357939 -.00000101  00000+0  00000+0 0  9992", "line2": "2 40333   0.0021   2.4661 0000406 143.6123 162.1671  1.00272088 40216"}}, "geometry": {"type": "Point", "coordinates": [-79.00998139793603, -0.025948229888410244]}}, {"type": "Feature", "properties": {"norad_id": 40663, "name": "DIRECTV 15", "group": "intelsat", "lat": -0.03039628074970976, "lon": -82.68073393717462, "alt_km": 35787.19905603682, "timestamp": "2025-12-17T19:34:07.712526+00:00", "meta": {"OBJECT_NAME": "DIRECTV 15", "OBJECT_ID": "2015-026A", "EPOCH": "2025-12-16T14:34:45.316416", "MEAN_MOTION": 1.0026971, "ECCENTRICITY": 2.235e-05, "INCLINATION": 0.0412, "RA_OF_ASC_NODE": 83.857, "ARG_OF_PERICENTER": 316.6385, "MEAN_ANOMALY": 160.8127, "EPHEMERIS_TYPE": 0, "CLASSIFICATION_TYPE": "U", "NORAD_CAT_ID": 40663, "ELEMENT_SET_NO": 999, "REV_AT_EPOCH": 3863, "BSTAR": 0, "MEAN_MOTION_DOT": -7.8e-07, "MEAN_MOTION_DDOT": 0}, "tle": {"line1": "1 40663U 15026A   25350.60746894 -.00000078  00000+0  00000+0 0  9996", "line2": "2 40663   0.0412  83.8570 0000223 316.6385 160.8127  1.00269710 38639"}}, "geometry": {"type": "Point", "coordinates": [-82.68073393717462, -0.03039628074970976]}}]}